[{"OBJECT_NAME":"NINGXIA-1 3","OBJECT_ID":"2019-076C","EPOCH":"2026-03-09T23:01:21.931104","MEAN_MOTION":14.02037323,"ECCENTRICITY":0.00099226,"INCLINATION":44.9997,"RA_OF_ASC_NODE":261.8703,"ARG_OF_PERICENTER":34.5677,"MEAN_ANOMALY":325.58,"EPHEMERIS_TYPE":0,"CLASSIFICATION_TYPE":"U","NORAD_CAT_ID":44781,"ELEMENT_SET_NO":999,"REV_AT_EPOCH":32393,"BSTAR":9.6124184e-5,"MEAN_MOTION_DOT":1.8e-7,"MEAN_MOTION_DDOT":0},{"OBJECT_NAME":"SL-16 DEB","OBJECT_ID":"1992-093DQ","EPOCH":"2026-03-09T15:01:27.211296","MEAN_MOTION":13.95500936,"ECCENTRICITY":0.0097115,"INCLINATION":71.2782,"RA_OF_ASC_NODE":73.487,"ARG_OF_PERICENTER":80.3057,"MEAN_ANOMALY":280.901,"EPHEMERIS_TYPE":0,"CLASSIFICATION_TYPE":"U","NORAD_CAT_ID":22423,"ELEMENT_SET_NO":999,"REV_AT_EPOCH":68777,"BSTAR":5.7064e-5,"MEAN_MOTION_DOT":3.8e-7,"MEAN_MOTION_DDOT":0}]
